0 FENGYUN 1C DEB
1 30665U 99025APX 13282.28804972  .00001011  00000-0  75601-3 0  9581
2 30665 098.9904 214.7969 0088189 236.5178 277.8403 13.95209253337312
0 FENGYUN 1C DEB
1 30665U 99025APX 13283.48664788  .00000945  00000-0  70860-3 0  9591
2 30665 098.9906 215.9656 0088224 233.1499 178.1814 13.95211724337482
0 FENGYUN 1C DEB
1 30665U 99025APX 13285.49437824  .00000954  00000-0  71497-3 0  9613
2 30665 098.9907 217.9235 0088160 227.4989 182.6859 13.95215108337767
0 FENGYUN 1C DEB
1 30665U 99025APX 13286.49834287  .00001078  00000-0  80372-3 0  9629
2 30665 098.9908 218.9023 0088092 224.6641 185.4594 13.95216518337901
0 FENGYUN 1C DEB
1 30665U 99025APX 13287.50292939  .00001282  00000-0  94950-3 0  9639
2 30665 098.9908 219.8820 0088029 221.8178 191.3728 13.95218373338042
0 FENGYUN 1C DEB
1 30665U 99025APX 13288.50927444  .00001760  00000-0  12920-2 0  9644
2 30665 098.9909 220.8632 0087984 218.9687 206.1277 13.95222330338184
0 FENGYUN 1C DEB
1 30665U 99025APX 13289.50973399  .00001572  00000-0  11576-2 0  9653
2 30665 098.9911 221.8387 0087932 216.1263 191.3401 13.95225525338327
0 FENGYUN 1C DEB
1 30665U 99025APX 13290.51724595  .00001776  00000-0  13035-2 0  9667
2 30665 098.9912 222.8213 0087911 213.2874 211.9646 13.95227933338460
0 FENGYUN 1C DEB
1 30665U 99025APX 13291.52117752  .00001831  00000-0  13427-2 0  9678
2 30665 098.9912 223.8005 0087877 210.4473 214.6268 13.95230557338607
0 FENGYUN 1C DEB
1 30665U 99025APX 13292.81172725  .00002031  00000-0  14858-2 0  9685
2 30665 098.9913 225.0590 0087857 206.8110 216.9476 13.95234565338784
0 FENGYUN 1C DEB
1 30665U 99025APX 13293.81638687  .00002045  00000-0  14956-2 0  9695
2 30665 098.9914 226.0388 0087851 203.9836 223.2751 13.95238978338923
0 FENGYUN 1C DEB
1 30665U 99025APX 13295.04848625  .00001961  00000-0  14351-2 0  9704
2 30665 098.9916 227.2404 0087890 200.5285 292.0200 13.95244213339092
